{
  "type": "FeatureCollection",
  "features": [
    {
      "type": "Feature",
      "geometry": {
        "type": "Polygon",
        "coordinates": [
          [
            [
              36.365434710912524,
              -0.741565289087476
            ],
            [
              36.36856528908747,
              -0.741565289087476
            ],
            [
              36.36856528908747,
              -0.738434710912524
            ],
            [
              36.365434710912524,
              -0.738434710912524
            ],
            [
              36.365434710912524,
              -0.741565289087476
            ]
          ]
        ]
      },
      "properties": {
        "polygon_code": "PIL-30",
        "phase": "pilot",
        "area_acres": 30.0,
        "site_code": "KOR-01",
        "survey_date": "2025-06-01",
        "cover_pct": 62.0
      }
    },
    {
      "type": "Feature",
      "geometry": {
        "type": "Polygon",
        "coordinates": [
          [
            [
              36.28514218619258,
              -0.7558578138074242
            ],
            [
              36.29085781380743,
              -0.7558578138074242
            ],
            [
              36.29085781380743,
              -0.7501421861925758
            ],
            [
              36.28514218619258,
              -0.7501421861925758
            ],
            [
              36.28514218619258,
              -0.7558578138074242
            ]
          ]
        ]
      },
      "properties": {
        "polygon_code": "TGT-100",
        "phase": "target",
        "area_acres": 100.0,
        "site_code": "OSE-01",
        "survey_date": "2025-06-01",
        "cover_pct": 28.0
      }
    },
    {
      "type": "Feature",
      "geometry": {
        "type": "Polygon",
        "coordinates": [
          [
            [
              36.36489317347173,
              -0.7761068265282716
            ],
            [
              36.36710682652827,
              -0.7761068265282716
            ],
            [
              36.36710682652827,
              -0.7738931734717285
            ],
            [
              36.36489317347173,
              -0.7738931734717285
            ],
            [
              36.36489317347173,
              -0.7761068265282716
            ]
          ]
        ]
      },
      "properties": {
        "polygon_code": "BASE-15",
        "phase": "baseline",
        "area_acres": 15.0,
        "site_code": "CRE-01",
        "survey_date": "2024-01-01",
        "cover_pct": 12.0
      }
    }
  ]
}